1 41328U 16007A   19333.67712925  .00000037  00000-0  00000+0 0  9999
2 41328  54.8180 184.4041 0034282 217.2098 142.6262  2.00565780 27922
1 41328U 16007A   19334.17569956  .00000035  00000-0  00000+0 0  9997
2 41328  54.8181 184.3843 0034305 217.1763 142.6574  2.00565735 27933
1 41328U 16007A   19334.17569956  .00000035  00000-0  00000-0 0  9998
2 41328  54.8181 184.3843 0034305 217.1763 142.6574  2.00565735 27933
1 41328U 16007A   19335.67141082  .00000035  00000-0  00000+0 0  9999
2 41328  54.8183 184.3249 0034340 217.1579 142.6708  2.00565720 27965
1 41328U 16007A   19338.16427563  .00000061  00000-0  00000+0 0  9996
2 41328  54.8174 184.2259 0034391 217.1240 142.7047  2.00565659 28011
1 41328U 16007A   19339.16142331  .00000075  00000-0  00000+0 0  9999
2 41328  54.8170 184.1862 0034423 217.0881 142.7430  2.00565674 28037
1 41328U 16007A   19339.16142331  .00000075  00000-0  00000-0 0  9990
2 41328  54.8170 184.1862 0034423 217.0881 142.7430  2.00565674 28037
1 41328U 16007A   19339.16142531  .00000075  00000-0  00000+0 0  9991
2 41328  54.8175 184.1863 0034422 217.0935 142.7375  2.00565617 28037
1 41328U 16007A   19342.15287679  .00000108  00000-0  00000+0 0  9994
2 41328  54.8178 184.0674 0034495 217.1015 142.7372  2.00565418 28091
1 41328U 16007A   19342.15287684  .00000108  00000-0  00000+0 0  9990
2 41328  54.8179 184.0674 0034490 217.0567 142.7822  2.00565420 28091
1 41328U 16007A   19342.15287684  .00000108  00000-0  00000-0 0  9991
2 41328  54.8179 184.0674 0034490 217.0567 142.7822  2.00565420 28091
1 41328U 16007A   19344.64574307  .00000112  00000-0  00000+0 0  9992
2 41328  54.8181 183.9683 0034553 217.0513 142.7861  2.00565273 28148
1 41328U 16007A   19346.64002468  .00000103  00000-0  00000+0 0  9998
2 41328  54.8183 183.8891 0034602 217.0430 142.7847  2.00565145 28189
1 41328U 16007A   19349.63144415  .00000088  00000-0  00000+0 0  9991
2 41328  54.8189 183.7702 0034660 217.0364 142.7719  2.00564973 28248
1 41328U 16007A   19351.12716054  .00000090  00000-0  00000+0 0  9995
2 41328  54.8193 183.7107 0034712 217.0044 142.7987  2.00564862 28272
1 41328U 16007A   19351.12716054  .00000090  00000-0  00000-0 0  9996
2 41328  54.8193 183.7107 0034712 217.0044 142.7987  2.00564862 28272
1 41328U 16007A   19353.62003593  .00000106  00000-0  00000+0 0  9997
2 41328  54.8195 183.6116 0034779 216.9820 142.8218  2.00564737 28321
1 41328U 16007A   19354.61718762  .00000111  00000-0  00000+0 0  9994
2 41328  54.8196 183.5720 0034809 216.9852 142.8199  2.00564713 28345
1 41328U 16007A   19354.61718762  .00000111  00000-0  00000-0 0  9995
2 41328  54.8196 183.5720 0034809 216.9852 142.8199  2.00564713 28345
1 41328U 16007A   19355.61433678  .00000111  00000-0  00000+0 0  9995
2 41328  54.8197 183.5324 0034864 216.9700 142.8351  2.00564708 28365
1 41328U 16007A   19356.61148530  .00000106  00000-0  00000+0 0  9990
2 41328  54.8198 183.4928 0034902 216.9571 142.8462  2.00564677 28384
1 41328U 16007A   19356.61148530  .00000106  00000-0  00000-0 0  9991
2 41328  54.8198 183.4928 0034902 216.9571 142.8462  2.00564677 28384
1 41328U 16007A   19358.10720247  .00000089  00000-0  00000+0 0  9997
2 41328  54.8199 183.4333 0034953 216.9403 142.8567  2.00564632 28416
1 41328U 16007A   19359.10434536  .00000075  00000-0  00000+0 0  9996
2 41328  54.8199 183.3937 0034989 216.9265 142.8642  2.00564590 28439
1 41328U 16007A   19360.10148681  .00000061  00000-0  00000-0 0  9997
2 41328  54.8201 183.3542 0035010 216.9276 142.8563  2.00564570 28455
1 41328U 16007A   19361.09862921  .00000050  00000-0  00000+0 0  9993
2 41328  54.8202 183.3146 0035044 216.9330 142.8444  2.00564550 28472
1 41328U 16007A   19361.59720047  .00000047  00000-0  00000+0 0  9996
2 41328  54.8202 183.2948 0035042 216.9471 142.8275  2.00564565 28484
1 41328U 16007A   19361.59720047  .00000047  00000-0  00000-0 0  9997
2 41328  54.8202 183.2948 0035042 216.9471 142.8275  2.00564565 28484
1 41328U 16007A   19362.59434588  .00000045  00000-0  00000-0 0  9998
2 41328  54.8203 183.2552 0035095 216.9489 142.8209  2.00564529 28503
1 41328U 16007A   19363.59149368  .00000048  00000-0  00000+0 0  9990
2 41328  54.8204 183.2156 0035131 216.9603 142.8066  2.00564503 28528
1 41328U 16007A   19363.59149368  .00000048  00000-0  00000-0 0  9991
2 41328  54.8204 183.2156 0035131 216.9603 142.8066  2.00564503 28528
1 41328U 16007A   19364.58864380  .00000057  00000-0  00000+0 0  9998
2 41328  54.8205 183.1760 0035172 216.9684 142.7974  2.00564477 28542
1 41328U 16007A   19365.58579589  .00000069  00000-0  00000-0 0  9997
2 41328  54.8208 183.1364 0035187 216.9828 142.7837  2.00564479 28563
1 41328U 16007A   20001.08437317  .00000075  00000-0  00000+0 0  9999
2 41328  54.8210 183.1166 0035205 216.9851 142.7820  2.00564455 28570
1 41328U 16007A   20002.08152913  .00000088  00000-0  00000+0 0  9990
2 41328  54.8211 183.0770 0035239 216.9972 142.7718  2.00564384 28591
1 41328U 16007A   20002.58010660  .00000094  00000-0  00000+0 0  9994
2 41328  54.8212 183.0572 0035241 217.0001 142.7702  2.00564378 28608
1 41328U 16007A   20002.58010660  .00000094  00000-0  00000-0 0  9995
2 41328  54.8212 183.0572 0035241 217.0001 142.7702  2.00564378 28608
1 41328U 16007A   20003.07868537  .00000099  00000-0  00000-0 0  9999
2 41328  54.8212 183.0374 0035274 216.9915 142.7798  2.00564305 28612
1 41328U 16007A   20004.07583997  .00000106  00000-0  00000+0 0  9992
2 41328  54.8213 182.9978 0035325 216.9958 142.7771  2.00564263 28631
1 41328U 16007A   20005.57156991  .00000110  00000-0  00000+0 0  9993
2 41328  54.8214 182.9384 0035364 217.0218 142.7516  2.00564208 28666
1 41328U 16007A   20006.56872071  .00000108  00000-0  00000+0 0  9994
2 41328  54.8214 182.8988 0035421 217.0500 142.7213  2.00564121 28683
1 41328U 16007A   20006.56872071  .00000108  00000-0  00000-0 0  9995
2 41328  54.8214 182.8988 0035421 217.0500 142.7213  2.00564121 28683
1 41328U 16007A   20007.56586936  .00000104  00000-0  00000+0 0  9993
2 41328  54.8215 182.8592 0035454 217.0714 142.6962  2.00564045 28706
1 41328U 16007A   20007.56586936  .00000104  00000-0  00000-0 0  9994
2 41328  54.8215 182.8592 0035454 217.0714 142.6962  2.00564045 28706
1 41328U 16007A   20010.05873280  .00000086  00000-0  00000+0 0  9991
2 41328  54.8217 182.7602 0035516 217.1102 142.6420  2.00563911 28755
1 41328U 16007A   20011.05587870  .00000079  00000-0  00000+0 0  9991
2 41328  54.8218 182.7206 0035561 217.1271 142.6183  2.00563805 28773
1 41328U 16007A   20012.05302537  .00000076  00000-0  00000+0 0  9994
2 41328  54.8219 182.6810 0035604 217.1468 142.5929  2.00563756 28794
1 41328U 16007A   20013.05017500  .00000075  00000-0  00000+0 0  9997
2 41328  54.8221 182.6414 0035646 217.1578 142.5782  2.00563700 28814
1 41328U 16007A   20014.54590649  .00000080  00000-0  00000+0 0  9998
2 41328  54.8222 182.5820 0035676 217.1895 142.5453  2.00563648 28849
1 41328U 16007A   20016.54022239  .00000090  00000-0  00000-0 0  9997
2 41328  54.8223 182.5028 0035766 217.2455 142.4918  2.00563526 28887
1 41328U 16007A   20017.53738031  .00000090  00000-0  00000-0 0  9991
2 41328  54.8224 182.4632 0035809 217.2599 142.4785  2.00563466 28903
1 41328U 16007A   20019.03311176  .00000081  00000-0  00000-0 0  9995
2 41328  54.8225 182.4038 0035852 217.2957 142.4411  2.00563470 28934
1 41328U 16007A   20021.02741437  .00000053  00000-0  00000-0 0  9993
2 41328  54.8226 182.3246 0035946 217.3372 142.3906  2.00563354 28974
1 41328U 16007A   20021.02741451  .00000053  00000-0  00000+0 0  9998
2 41328  54.8226 182.3246 0035942 217.3381 142.3897  2.00563358 28973
1 41328U 16007A   20023.52028541  .00000019  00000-0  00000+0 0  9995
2 41328  54.8226 182.2256 0036037 217.3931 142.3199  2.00563354 29028
1 41328U 16007A   20023.52028541  .00000019  00000-0  00000-0 0  9996
2 41328  54.8226 182.2256 0036037 217.3931 142.3199  2.00563354 29028
1 41328U 16007A   20024.01886235  .00000015  00000-0  00000-0 0  9999
2 41328  54.8219 182.2058 0036067 217.4145 142.2959  2.00563281 29034
1 41328U 16007A   20025.01601440  .00000012  00000-0  00000-0 0  9990
2 41328  54.8219 182.1662 0036093 217.4542 142.2529  2.00563300 29051
1 41328U 16007A   20025.51459164  .00000013  00000-0  00000-0 0  9990
2 41328  54.8219 182.1465 0036130 217.4738 142.2321  2.00563288 29067
1 41328U 16007A   20027.01032872  .00000023  00000-0  00000-0 0  9991
2 41328  54.8216 182.0871 0036199 217.5258 142.1798  2.00563224 29097
1 41328U 16007A   20029.00465145  .00000046  00000-0  00000-0 0  9990
2 41328  54.8216 182.0079 0036283 217.5798 142.1307  2.00563172 29133
1 41328U 16007A   20030.50039633  .00000061  00000-0  00000+0 0  9992
2 41328  54.8219 181.9484 0036327 217.6132 142.1026  2.00563129 29169
1 41328U 16007A   20031.49756303  .00000066  00000-0  00000-0 0  9997
2 41328  54.8219 181.9089 0036381 217.6601 142.0584  2.00562948 29189
1 41328U 16007A   20031.99614057  .00000068  00000-0  00000-0 0  9993
2 41328  54.8218 181.8891 0036434 217.6986 142.0205  2.00563002 29196
1 41328U 16007A   20032.99330061  .00000068  00000-0  00000+0 0  9993
2 41328  54.8218 181.8495 0036450 217.7032 142.0173  2.00562970 29217
1 41328U 16007A   20034.48903909  .00000062  00000-0  00000-0 0  9991
2 41328  54.8218 181.7902 0036510 217.7626 141.9561  2.00562830 29242
1 41328U 16007A   20036.48334558  .00000048  00000-0  00000+0 0  9994
2 41328  54.8218 181.7110 0036601 217.8374 141.8733  2.00562756 29286
1 41328U 16007A   20037.97907742  .00000037  00000-0  00000-0 0  9999
2 41328  54.8218 181.6516 0036658 217.8829 141.8202  2.00562595 29318
1 41328U 16007A   20040.47196948  .00000031  00000-0  00000+0 0  9999
2 41328  54.8219 181.5527 0036753 217.9687 141.7271  2.00562489 29361
1 41328U 16007A   20040.97054809  .00000032  00000-0  00000-0 0  9995
2 41328  54.8219 181.5329 0036796 217.9942 141.7015  2.00562498 29379
